<?xml version='1.0' encoding='UTF-8' standalone='yes' ?><TrainingCenterDatabase creator="Mi Fitness" version="1.0" xmlns="http://www.garmin.com/xmlschemas/TrainingCenterDatabase/v2" xmlns:xsi="http://www.w3.org/2001/XMLSchema-instance" xsi:schemaLocation="http://www.garmin.com/xmlschemas/TrainingCenterDatabase/v2 http://www.garmin.com/xmlschemas/TrainingCenterDatabasev2.xsd"><Activities><Activity Sport="Other"><Id>2026-06-30T10:51:36.000Z</Id><Calories>370</Calories><Lap><TotalTimeSeconds>4341</TotalTimeSeconds><Calories>268</Calories><HeartRateBpm>90</HeartRateBpm></Lap></Activity></Activities></TrainingCenterDatabase>